     2.100          NAVIGATION                              RINEX VERSION / TYPE
fic2rin                                 04/26/2015 00:19:40 PGM / RUN BY / DATE
                                                            END OF HEADER
30 15  4 26  0  0  0.0 -.673388130963D-04  .432009983342D-11  .000000000000D+00
     .720000000000D+02  .427812500000D+02  .453126017375D-08 -.576310608622D-01
     .222399830818D-05  .128289917484D-02  .857561826706D-05  .515375171280D+04
     .000000000000D+00  .111758708954D-07  .178597525594D+01  .000000000000D+00
     .956074614014D+00  .209093750000D+03  .284562191864D+01 -.812748139937D-08
     .403588239642D-10  .100000000000D+01  .184200000000D+04  .000000000000D+00
     .240000000000D+01  .000000000000D+00  .325962901115D-08  .720000000000D+02
     .597606000000D+06  .400000000000D+01
31 15  4 26  0  0  0.0  .317619647831D-03 -.102318153949D-11  .000000000000D+00
     .880000000000D+02  .350937500000D+02  .416588781166D-08 -.390240144623D+00
     .171549618244D-05  .813113350887D-02  .756792724133D-05  .515377185440D+04
     .000000000000D+00  .167638063431D-07  .174380007527D+01 -.132247805595D-06
     .975223405604D+00  .236687500000D+03 -.518102622608D+00 -.802319134098D-08
     .653598653579D-10  .100000000000D+01  .184200000000D+04  .000000000000D+00
     .240000000000D+01  .000000000000D+00 -.135041773319D-07  .880000000000D+02
     .597606000000D+06  .400000000000D+01
32 15  4 26  0  0  0.0 -.166876241565D-03  .954969436862D-11  .000000000000D+00
     .790000000000D+02  .207812500000D+02  .504628162646D-08  .255941950610D+00
     .106357038021D-05  .112635702826D-01  .707991421223D-05  .515377924728D+04
     .000000000000D+00  .208616256714D-06 -.301080909686D+00  .223517417908D-07
     .947315934757D+00  .235250000000D+03  .378465304256D-01 -.843213694664D-08
     .482162941165D-10  .100000000000D+01  .184200000000D+04  .000000000000D+00
     .240000000000D+01  .000000000000D+00 -.372529029846D-08  .790000000000D+02
     .597606000000D+06  .400000000000D+01
 5 15  4 25 23 59 44.0 -.249249394983D-03  .477484718431D-11  .000000000000D+00
     .180000000000D+02  .227187500000D+02  .490198990184D-08 -.299376549266D+01
     .116787850857D-05  .412187911570D-02  .775791704655D-05  .515353867340D+04
     .604784000000D+06 -.372529029846D-08 -.269503714689D+00 -.316649675369D-07
     .946818070087D+00  .223593750000D+03  .380444999610D+00 -.814819654795D-08
     .122147945095D-09  .100000000000D+01  .184100000000D+04  .000000000000D+00
     .240000000000D+01  .000000000000D+00 -.107102096081D-07  .180000000000D+02
     .602376000000D+06  .400000000000D+01
